CCSDS_OMM_VERS = 2.0
CREATION_DATE  = 
ORIGINATOR     = 

OBJECT_NAME    = IDEFIX & ARIANE 42P R/B
OBJECT_ID      = 2002-021B
CENTER_NAME    = EARTH
REF_FRAME      = TEME
TIME_SYSTEM    = UTC
MEAN_ELEMENT_THEORY = SGP/SGP4

EPOCH          = 2025-12-22T10:37:06.943008
MEAN_MOTION    = 14.30956944
ECCENTRICITY   = .00128304
INCLINATION    = 98.5800
RA_OF_ASC_NODE = 291.0079
ARG_OF_PERICENTER = 57.5130
MEAN_ANOMALY   = 302.7291

EPHEMERIS_TYPE = 0
CLASSIFICATION_TYPE = U
NORAD_CAT_ID   = 27422
ELEMENT_SET_NO = 999
REV_AT_EPOCH   = 23297
BSTAR          = .12330224E-3
MEAN_MOTION_DOT = .281E-5
MEAN_MOTION_DDOT = 0

CCSDS_OMM_VERS = 2.0
CREATION_DATE  = 
ORIGINATOR     = 

OBJECT_NAME    = AQUA
OBJECT_ID      = 2002-022A
CENTER_NAME    = EARTH
REF_FRAME      = TEME
TIME_SYSTEM    = UTC
MEAN_ELEMENT_THEORY = SGP/SGP4

EPOCH          = 2025-12-21T22:23:22.229952
MEAN_MOTION    = 14.61820667
ECCENTRICITY   = .0001439
INCLINATION    = 98.4050
RA_OF_ASC_NODE = 316.9619
ARG_OF_PERICENTER = 110.3776
MEAN_ANOMALY   = 326.1362

EPHEMERIS_TYPE = 0
CLASSIFICATION_TYPE = U
NORAD_CAT_ID   = 27424
ELEMENT_SET_NO = 999
REV_AT_EPOCH   = 25737
BSTAR          = .18434E-3
MEAN_MOTION_DOT = .871E-5
MEAN_MOTION_DDOT = 0

CCSDS_OMM_VERS = 2.0
CREATION_DATE  = 
ORIGINATOR     = 

OBJECT_NAME    = CZ-4B R/B
OBJECT_ID      = 2002-024C
CENTER_NAME    = EARTH
REF_FRAME      = TEME
TIME_SYSTEM    = UTC
MEAN_ELEMENT_THEORY = SGP/SGP4

EPOCH          = 2025-12-22T02:56:37.187232
MEAN_MOTION    = 14.14529741
ECCENTRICITY   = .00492957
INCLINATION    = 98.8985
RA_OF_ASC_NODE = 44.8612
ARG_OF_PERICENTER = 242.7563
MEAN_ANOMALY   = 171.6272

EPHEMERIS_TYPE = 0
CLASSIFICATION_TYPE = U
NORAD_CAT_ID   = 27432
ELEMENT_SET_NO = 999
REV_AT_EPOCH   = 21827
BSTAR          = .54142847E-4
MEAN_MOTION_DOT = .6E-6
MEAN_MOTION_DDOT = 0

CCSDS_OMM_VERS = 2.0
CREATION_DATE  = 
ORIGINATOR     = 

OBJECT_NAME    = MIDORI II (ADEOS-II)
OBJECT_ID      = 2002-056A
CENTER_NAME    = EARTH
REF_FRAME      = TEME
TIME_SYSTEM    = UTC
MEAN_ELEMENT_THEORY = SGP/SGP4

EPOCH          = 2025-12-21T17:54:58.329216
MEAN_MOTION    = 14.29211121
ECCENTRICITY   = .00006503
INCLINATION    = 98.7651
RA_OF_ASC_NODE = 308.7506
ARG_OF_PERICENTER = 149.6129
MEAN_ANOMALY   = 210.5090

EPHEMERIS_TYPE = 0
CLASSIFICATION_TYPE = U
NORAD_CAT_ID   = 27597
ELEMENT_SET_NO = 999
REV_AT_EPOCH   = 19916
BSTAR          = .94984108E-4
MEAN_MOTION_DOT = .196E-5
MEAN_MOTION_DDOT = 0

CCSDS_OMM_VERS = 2.0
CREATION_DATE  = 
ORIGINATOR     = 

OBJECT_NAME    = H-2A R/B
OBJECT_ID      = 2002-056E
CENTER_NAME    = EARTH
REF_FRAME      = TEME
TIME_SYSTEM    = UTC
MEAN_ELEMENT_THEORY = SGP/SGP4

EPOCH          = 2025-12-22T12:45:06.548256
MEAN_MOTION    = 14.33684110
ECCENTRICITY   = .00710423
INCLINATION    = 98.3080
RA_OF_ASC_NODE = 314.8987
ARG_OF_PERICENTER = 32.3555
MEAN_ANOMALY   = 81.1449

EPHEMERIS_TYPE = 0
CLASSIFICATION_TYPE = U
NORAD_CAT_ID   = 27601
ELEMENT_SET_NO = 999
REV_AT_EPOCH   = 20305
BSTAR          = .13198979E-3
MEAN_MOTION_DOT = .335E-5
MEAN_MOTION_DDOT = 0

CCSDS_OMM_VERS = 2.0
CREATION_DATE  = 
ORIGINATOR     = 

OBJECT_NAME    = CZ-4B R/B
OBJECT_ID      = 2003-049C
CENTER_NAME    = EARTH
REF_FRAME      = TEME
TIME_SYSTEM    = UTC
MEAN_ELEMENT_THEORY = SGP/SGP4

EPOCH          = 2025-12-22T13:37:28.217280
MEAN_MOTION    = 14.54918244
ECCENTRICITY   = .00493428
INCLINATION    = 98.6795
RA_OF_ASC_NODE = 343.5031
ARG_OF_PERICENTER = 106.6545
MEAN_ANOMALY   = 254.0076

EPHEMERIS_TYPE = 0
CLASSIFICATION_TYPE = U
NORAD_CAT_ID   = 28059
ELEMENT_SET_NO = 999
REV_AT_EPOCH   = 17538
BSTAR          = .94928427E-4
MEAN_MOTION_DOT = .364E-5
MEAN_MOTION_DDOT = 0

CCSDS_OMM_VERS = 2.0
CREATION_DATE  = 
ORIGINATOR     = 

OBJECT_NAME    = CZ-2C R/B
OBJECT_ID      = 2004-012C
CENTER_NAME    = EARTH
REF_FRAME      = TEME
TIME_SYSTEM    = UTC
MEAN_ELEMENT_THEORY = SGP/SGP4

EPOCH          = 2025-12-22T03:06:28.107936
MEAN_MOTION    = 15.56173419
ECCENTRICITY   = .00165259
INCLINATION    = 97.7403
RA_OF_ASC_NODE = 49.5304
ARG_OF_PERICENTER = 233.7201
MEAN_ANOMALY   = 126.2527

EPHEMERIS_TYPE = 0
CLASSIFICATION_TYPE = U
NORAD_CAT_ID   = 28222
ELEMENT_SET_NO = 999
REV_AT_EPOCH   = 19218
BSTAR          = .60251208E-3
MEAN_MOTION_DOT = .42474E-3
MEAN_MOTION_DDOT = 0

CCSDS_OMM_VERS = 2.0
CREATION_DATE  = 
ORIGINATOR     = 

OBJECT_NAME    = SL-16 R/B
OBJECT_ID      = 2004-021B
CENTER_NAME    = EARTH
REF_FRAME      = TEME
TIME_SYSTEM    = UTC
MEAN_ELEMENT_THEORY = SGP/SGP4

EPOCH          = 2025-12-22T10:49:00.368544
MEAN_MOTION    = 14.14578916
ECCENTRICITY   = .00047653
INCLINATION    = 71.0005
RA_OF_ASC_NODE = 34.5866
ARG_OF_PERICENTER = 183.9080
MEAN_ANOMALY   = 176.2006

EPHEMERIS_TYPE = 0
CLASSIFICATION_TYPE = U
NORAD_CAT_ID   = 28353
ELEMENT_SET_NO = 999
REV_AT_EPOCH   = 11191
BSTAR          = .42450705E-4
MEAN_MOTION_DOT = .34E-6
MEAN_MOTION_DDOT = 0

CCSDS_OMM_VERS = 2.0
CREATION_DATE  = 
ORIGINATOR     = 

OBJECT_NAME    = CZ-4B R/B
OBJECT_ID      = 2004-035C
CENTER_NAME    = EARTH
REF_FRAME      = TEME
TIME_SYSTEM    = UTC
MEAN_ELEMENT_THEORY = SGP/SGP4

EPOCH          = 2025-12-21T16:01:06.085920
MEAN_MOTION    = 15.27504209
ECCENTRICITY   = .00316116
INCLINATION    = 97.3592
RA_OF_ASC_NODE = 25.8926
ARG_OF_PERICENTER = 244.2023
MEAN_ANOMALY   = 115.5954

EPHEMERIS_TYPE = 0
CLASSIFICATION_TYPE = U
NORAD_CAT_ID   = 28415
ELEMENT_SET_NO = 999
REV_AT_EPOCH   = 16799
BSTAR          = .23974777E-3
MEAN_MOTION_DOT = .6469E-4
MEAN_MOTION_DDOT = 0

CCSDS_OMM_VERS = 2.0
CREATION_DATE  = 
ORIGINATOR     = 

OBJECT_NAME    = CZ-2C R/B
OBJECT_ID      = 2004-046B
CENTER_NAME    = EARTH
REF_FRAME      = TEME
TIME_SYSTEM    = UTC
MEAN_ELEMENT_THEORY = SGP/SGP4

EPOCH          = 2025-12-22T11:53:04.337376
MEAN_MOTION    = 14.26946080
ECCENTRICITY   = .01400406
INCLINATION    = 98.1997
RA_OF_ASC_NODE = 271.2670
ARG_OF_PERICENTER = 23.6188
MEAN_ANOMALY   = 337.1340

EPHEMERIS_TYPE = 0
CLASSIFICATION_TYPE = U
NORAD_CAT_ID   = 28480
ELEMENT_SET_NO = 999
REV_AT_EPOCH   = 9749
BSTAR          = .10487002E-3
MEAN_MOTION_DOT = .242E-5
MEAN_MOTION_DDOT = 0

CCSDS_OMM_VERS = 2.0
CREATION_DATE  = 
ORIGINATOR     = 

OBJECT_NAME    = ARIANE 5 R/B
OBJECT_ID      = 2004-049H
CENTER_NAME    = EARTH
REF_FRAME      = TEME
TIME_SYSTEM    = UTC
MEAN_ELEMENT_THEORY = SGP/SGP4

EPOCH          = 2025-12-22T10:08:37.680576
MEAN_MOTION    = 14.85035388
ECCENTRICITY   = .00834086
INCLINATION    = 98.2527
RA_OF_ASC_NODE = 157.0515
ARG_OF_PERICENTER = 241.1242
MEAN_ANOMALY   = 118.1584

EPHEMERIS_TYPE = 0
CLASSIFICATION_TYPE = U
NORAD_CAT_ID   = 28499
ELEMENT_SET_NO = 999
REV_AT_EPOCH   = 13432
BSTAR          = .13645568E-3
MEAN_MOTION_DOT = .1174E-4
MEAN_MOTION_DDOT = 0

CCSDS_OMM_VERS = 2.0
CREATION_DATE  = 
ORIGINATOR     = 

OBJECT_NAME    = CZ-2D R/B
OBJECT_ID      = 2005-024B
CENTER_NAME    = EARTH
REF_FRAME      = TEME
TIME_SYSTEM    = UTC
MEAN_ELEMENT_THEORY = SGP/SGP4

EPOCH          = 2025-12-22T13:51:25.219872
MEAN_MOTION    = 15.53727413
ECCENTRICITY   = .00038537
INCLINATION    = 97.3623
RA_OF_ASC_NODE = 4.2855
ARG_OF_PERICENTER = 328.0529
MEAN_ANOMALY   = 32.0490

EPHEMERIS_TYPE = 0
CLASSIFICATION_TYPE = U
NORAD_CAT_ID   = 28738
ELEMENT_SET_NO = 999
REV_AT_EPOCH   = 12778
BSTAR          = .48603555E-3
MEAN_MOTION_DOT = .31095E-3
MEAN_MOTION_DDOT = 0

