IDEFIX & ARIANE 42P R/B 
1 27422U 02021B   25356.44244147  .00000281  00000+0  12330-3 0  9995
2 27422  98.5800 291.0079 0012830  57.5130 302.7291 14.30956944232974
AQUA                    
1 27424U 02022A   25355.93289618  .00000871  00000+0  18434-3 0  9999
2 27424  98.4050 316.9619 0001439 110.3776 326.1362 14.61820667257372
CZ-4B R/B               
1 27432U 02024C   25356.12265263  .00000060  00000+0  54143-4 0  9990
2 27432  98.8985  44.8612 0049295 242.7563 171.6272 14.14529741218274
MIDORI II (ADEOS-II)    
1 27597U 02056A   25355.74650844  .00000196  00000+0  94984-4 0  9994
2 27597  98.7651 308.7506 0000650 149.6129 210.5090 14.29211121199167
H-2A R/B                
1 27601U 02056E   25356.53132579  .00000335  00000+0  13199-3 0  9991
2 27601  98.3080 314.8987 0071042  32.3555  81.1449 14.33684110203051
CZ-4B R/B               
1 28059U 03049C   25356.56768770  .00000364  00000+0  94928-4 0  9995
2 28059  98.6795 343.5031 0049342 106.6545 254.0076 14.54918244175388
CZ-2C R/B               
1 28222U 04012C   25356.12949199  .00042474  00000+0  60251-3 0  9995
2 28222  97.7403  49.5304 0016525 233.7201 126.2527 15.56173419192188
SL-16 R/B               
1 28353U 04021B   25356.45069871  .00000034  00000+0  42451-4 0  9995
2 28353  71.0005  34.5866 0004765 183.9080 176.2006 14.14578916111910
CZ-4B R/B               
1 28415U 04035C   25355.66743155  .00006469  00000+0  23975-3 0  9992
2 28415  97.3592  25.8926 0031611 244.2023 115.5954 15.27504209167995
CZ-2C R/B               
1 28480U 04046B   25356.49518909  .00000242  00000+0  10487-3 0  9992
2 28480  98.1997 271.2670 0140040  23.6188 337.1340 14.26946080 97499
ARIANE 5 R/B            
1 28499U 04049H   25356.42265834  .00001174  00000+0  13646-3 0  9999
2 28499  98.2527 157.0515 0083408 241.1242 118.1584 14.85035388134326
CZ-2D R/B               
1 28738U 05024B   25356.57737523  .00031095  00000+0  48604-3 0  9991
2 28738  97.3623   4.2855 0003853 328.0529  32.0490 15.53727413127783
